OBJECT_NAME,OBJECT_ID,EPOCH,MEAN_MOTION,ECCENTRICITY,INCLINATION,RA_OF_ASC_NODE,ARG_OF_PERICENTER,MEAN_ANOMALY,EPHEMERIS_TYPE,CLASSIFICATION_TYPE,NORAD_CAT_ID,ELEMENT_SET_NO,REV_AT_EPOCH,BSTAR,MEAN_MOTION_DOT,MEAN_MOTION_DDOT
SIRION PATHFINDER-2,2018-099B,2026-06-11T16:45:08.281728,15.14499537,.00076,97.4258,211.8858,327.5787,32.4978,0,U,43759,999,41179,.23404E-3,.4246E-4,0
CORVUS BC4,2018-099K,2026-06-11T15:08:36.863808,15.12451004,.0008894,97.4072,205.7738,31.6274,328.5490,0,U,43767,999,41156,.20656E-3,.3531E-4,0
M2 PATHFINDER,2020-037E,2026-06-11T11:03:27.891936,15.04652768,.0011967,97.8158,353.6285,164.5822,195.5770,0,U,45727,999,32463,.14173E-3,.1931E-4,0
NETSAT-4,2020-068U,2026-06-11T13:12:39.470112,15.43678217,.0004567,97.8603,170.3387,2.6177,357.5092,0,U,46504,999,31490,.36585E-3,.16418E-3,0
NETSAT-3,2020-068V,2026-06-11T13:15:26.280000,15.42483769,.0005016,97.8652,168.5644,21.9125,338.2335,0,U,46505,999,31481,.40759E-3,.17585E-3,0
NETSAT-1,2020-068W,2026-06-11T12:39:53.739648,15.34510423,.0005692,97.8744,162.9354,48.6631,311.5100,0,U,46506,999,31443,.35417E-3,.11763E-3,0
NETSAT-2,2020-068X,2026-06-11T06:35:18.744000,15.45743313,.0004198,97.8620,169.9134,43.2285,316.9291,0,U,46507,999,31482,.36601E-3,.17621E-3,0
GREENCUBE (IO-117),2022-080E,2026-06-01T11:09:37.753056,6.42583280,.00088692,70.1435,303.7143,293.3663,66.6064,0,U,53109,999,9105,0,-.3E-7,0
SITRO-AIS 5 (KATYS),2023-091L,2026-06-11T15:20:54.248928,15.29328443,.0012774,97.5068,226.4862,120.5417,239.7085,0,U,57176,999,16349,.40118E-3,.11367E-3,0
SITRO-AIS 6 (CHIRKIN),2023-091AC,2026-06-11T16:06:38.937600,15.25828927,.0013063,97.5076,225.6666,123.4610,236.7879,0,U,57192,999,16344,.36771E-3,.9357E-4,0
SITRO-AIS 8 (ANOKHIN),2023-091AD,2026-06-11T15:59:19.642848,15.31983771,.0011846,97.5065,228.0797,116.8868,243.3586,0,U,57193,999,16360,.45044E-3,.1387E-3,0
SITRO-AIS 7 (FARTUSHNIY),2023-091AE,2026-06-11T16:09:33.914016,15.25518798,.0012898,97.5074,225.4964,124.4280,235.8179,0,U,57194,999,16343,.36617E-3,.9231E-4,0
SITRO-AIS 10 (BURDAEV),2023-091AK,2026-06-11T15:44:23.781120,15.38399418,.0007802,97.5088,233.0662,96.5567,263.6566,0,U,57199,999,16391,.49277E-3,.18616E-3,0
SITRO-AIS 9 (SHCHUKIN),2023-091AM,2026-06-11T16:19:53.624064,15.37918677,.000806,97.5086,232.8259,96.6428,263.5734,0,U,57201,999,16390,.49582E-3,.18442E-3,0
SITRO-AIS 12 (SMIRENNIY),2023-091AQ,2026-06-11T16:07:53.239872,15.38206637,.0007627,97.5100,233.2809,91.7374,268.4744,0,U,57204,999,16392,.47758E-3,.17924E-3,0
SITRO-AIS 11 (SHEFFER),2023-091AU,2026-06-11T16:29:23.432064,15.38630283,.000753,97.5098,233.5394,91.6041,268.6066,0,U,57208,999,16394,.49725E-3,.18927E-3,0
SITRO-AIS 25,2024-039R,2026-06-11T16:20:59.079840,14.93486350,.0144147,95.3915,231.3087,348.1868,11.5987,0,U,59066,999,12390,.22211E-3,.2832E-4,0
SITRO-AIS 26,2024-039S,2026-06-11T16:21:52.837056,14.93283073,.0144484,95.3916,231.2079,348.7577,11.0429,0,U,59067,999,12389,.21675E-3,.275E-4,0
SITRO-AIS 27,2024-039T,2026-06-11T17:17:43.364256,14.93699841,.0143499,95.3915,231.5038,347.1896,12.5697,0,U,59068,999,12392,.23527E-3,.3014E-4,0
SITRO-AIS 28,2024-039U,2026-06-11T16:45:24.710688,14.93734401,.0143442,95.3918,231.5353,347.1390,12.6191,0,U,59071,999,12392,.18652E-3,.2384E-4,0
GRBBETA,2024-128C,2026-06-11T13:53:17.973600,15.06603237,.0041389,61.9897,235.9431,133.4300,227.0250,0,U,60237,999,10542,.22564E-3,.3203E-4,0
OOV-CUBE (TUBSAT-30),2024-128F,2026-06-11T14:22:54.209856,15.02751187,.0045327,61.9950,245.0577,132.4986,227.9949,0,U,60240,999,10527,.1598E-3,.1977E-4,0
ROBUSTA-3A (MEDITERRANEE),2024-128J,2026-06-11T12:17:37.848768,15.11611105,.0041955,61.9859,228.3117,127.1025,233.3917,0,U,60243,999,10556,.37269E-3,.6273E-4,0
LASARSAT,2024-247Q,2026-06-09T19:18:52.108128,15.45910909,.0008391,44.9750,303.6854,290.3514,69.6474,0,U,62391,999,8217,.71316E-3,.35312E-3,0
CROCUBE,2024-247T,2026-06-11T13:17:48.007104,15.47864361,.0008283,44.9723,291.2854,303.5524,56.4575,0,U,62394,999,8247,.70104E-3,.37162E-3,0
FORESAIL-1 PRIME,2025-276DS,2026-06-11T15:49:47.056224,15.18651804,.0003841,97.4203,236.0315,114.6307,245.5328,0,U,66778,999,2956,.2092E-3,.4267E-4,0
KNACKSAT-2,1998-067XZ,2026-06-11T15:33:29.786688,15.59472587,.0009864,51.6308,322.3291,190.9117,169.1664,0,U,67683,999,1941,.57743E-3,.46499E-3,0
